[{"OBJECT_NAME":"TDRS 3","OBJECT_ID":"1988-091B","EPOCH":"2026-04-05T02:14:31.392096","MEAN_MOTION":1.00267471,"ECCENTRICITY":0.00421312,"INCLINATION":12.6575,"RA_OF_ASC_NODE":341.4838,"ARG_OF_PERICENTER":356.1833,"MEAN_ANOMALY":200.3394,"EPHEMERIS_TYPE":0,"CLASSIFICATION_TYPE":"U","NORAD_CAT_ID":19548,"ELEMENT_SET_NO":999,"REV_AT_EPOCH":12465,"BSTAR":0,"MEAN_MOTION_DOT":-2.99e-6,"MEAN_MOTION_DDOT":0},{"OBJECT_NAME":"FLTSATCOM 8 (USA 46)","OBJECT_ID":"1989-077A","EPOCH":"2026-04-04T15:05:37.951008","MEAN_MOTION":1.00271462,"ECCENTRICITY":0.0007944,"INCLINATION":12.4422,"RA_OF_ASC_NODE":351.6054,"ARG_OF_PERICENTER":358.0848,"MEAN_ANOMALY":195.4376,"EPHEMERIS_TYPE":0,"CLASSIFICATION_TYPE":"U","NORAD_CAT_ID":20253,"ELEMENT_SET_NO":999,"REV_AT_EPOCH":25982,"BSTAR":0,"MEAN_MOTION_DOT":-3.67e-6,"MEAN_MOTION_DDOT":0},{"OBJECT_NAME":"SKYNET 4C","OBJECT_ID":"1990-079A","EPOCH":"2026-04-04T19:47:30.899616","MEAN_MOTION":1.00277012,"ECCENTRICITY":0.00034699,"INCLINATION":13.3636,"RA_OF_ASC_NODE":350.3148,"ARG_OF_PERICENTER":18.3144,"MEAN_ANOMALY":154.7866,"EPHEMERIS_TYPE":0,"CLASSIFICATION_TYPE":"U","NORAD_CAT_ID":20776,"ELEMENT_SET_NO":999,"REV_AT_EPOCH":13015,"BSTAR":0,"MEAN_MOTION_DOT":1.27e-6,"MEAN_MOTION_DDOT":0},{"OBJECT_NAME":"TDRS 5","OBJECT_ID":"1991-054B","EPOCH":"2026-04-04T10:16:38.913024","MEAN_MOTION":1.00279312,"ECCENTRICITY":0.00086373,"INCLINATION":14.0809,"RA_OF_ASC_NODE":354.3247,"ARG_OF_PERICENTER":279.6049,"MEAN_ANOMALY":265.4293,"EPHEMERIS_TYPE":0,"CLASSIFICATION_TYPE":"U","NORAD_CAT_ID":21639,"ELEMENT_SET_NO":999,"REV_AT_EPOCH":12697,"BSTAR":0,"MEAN_MOTION_DOT":8.4e-7,"MEAN_MOTION_DDOT":0},{"OBJECT_NAME":"TDRS 6","OBJECT_ID":"1993-003B","EPOCH":"2026-04-05T03:22:07.929120","MEAN_MOTION":1.00267209,"ECCENTRICITY":0.00051091,"INCLINATION":14.182,"RA_OF_ASC_NODE":357.602,"ARG_OF_PERICENTER":182.3761,"MEAN_ANOMALY":18.0551,"EPHEMERIS_TYPE":0,"CLASSIFICATION_TYPE":"U","NORAD_CAT_ID":22314,"ELEMENT_SET_NO":999,"REV_AT_EPOCH":12167,"BSTAR":0,"MEAN_MOTION_DOT":-2.95e-6,"MEAN_MOTION_DDOT":0},{"OBJECT_NAME":"UFO 2 (USA 95)","OBJECT_ID":"1993-056A","EPOCH":"2026-04-04T21:28:46.843104","MEAN_MOTION":1.00268061,"ECCENTRICITY":0.00090335,"INCLINATION":11.8672,"RA_OF_ASC_NODE":3.9494,"ARG_OF_PERICENTER":294.0669,"MEAN_ANOMALY":246.1287,"EPHEMERIS_TYPE":0,"CLASSIFICATION_TYPE":"U","NORAD_CAT_ID":22787,"ELEMENT_SET_NO":999,"REV_AT_EPOCH":11781,"BSTAR":0,"MEAN_MOTION_DOT":1.26e-6,"MEAN_MOTION_DDOT":0},{"OBJECT_NAME":"USA 99 (MILSTAR-1 1)","OBJECT_ID":"1994-009A","EPOCH":"2026-04-04T07:13:26.426784","MEAN_MOTION":1.00272886,"ECCENTRICITY":0.00039805,"INCLINATION":17.5086,"RA_OF_ASC_NODE":28.5066,"ARG_OF_PERICENTER":336.0129,"MEAN_ANOMALY":206.481,"EPHEMERIS_TYPE":0,"CLASSIFICATION_TYPE":"U","NORAD_CAT_ID":22988,"ELEMENT_SET_NO":999,"REV_AT_EPOCH":3221,"BSTAR":0,"MEAN_MOTION_DOT":-1.99e-6,"MEAN_MOTION_DDOT":0},{"OBJECT_NAME":"UFO 4 (USA 108)","OBJECT_ID":"1995-003A","EPOCH":"2026-04-05T03:28:21.907200","MEAN_MOTION":1.00269479,"ECCENTRICITY":0.00034745,"INCLINATION":9.6974,"RA_OF_ASC_NODE":13.4701,"ARG_OF_PERICENTER":354.819,"MEAN_ANOMALY":49.6122,"EPHEMERIS_TYPE":0,"CLASSIFICATION_TYPE":"U","NORAD_CAT_ID":23467,"ELEMENT_SET_NO":999,"REV_AT_EPOCH":11422,"BSTAR":0,"MEAN_MOTION_DOT":-2.0e-7,"MEAN_MOTION_DDOT":0},{"OBJECT_NAME":"TDRS 7","OBJECT_ID":"1995-035B","EPOCH":"2026-04-04T16:52:29.320896","MEAN_MOTION":1.00268258,"ECCENTRICITY":0.00093397,"INCLINATION":13.4081,"RA_OF_ASC_NODE":348.6953,"ARG_OF_PERICENTER":55.5374,"MEAN_ANOMALY":130.8856,"EPHEMERIS_TYPE":0,"CLASSIFICATION_TYPE":"U","NORAD_CAT_ID":23613,"ELEMENT_SET_NO":999,"REV_AT_EPOCH":11251,"BSTAR":0,"MEAN_MOTION_DOT":-2.37e-6,"MEAN_MOTION_DDOT":0},{"OBJECT_NAME":"USA 115 (MILSTAR-1 2)","OBJECT_ID":"1995-060A","EPOCH":"2026-04-01T10:05:27.602304","MEAN_MOTION":1.00275542,"ECCENTRICITY":0.00039388,"INCLINATION":14.0463,"RA_OF_ASC_NODE":4.3204,"ARG_OF_PERICENTER":354.5502,"MEAN_ANOMALY":222.3022,"EPHEMERIS_TYPE":0,"CLASSIFICATION_TYPE":"U","NORAD_CAT_ID":23712,"ELEMENT_SET_NO":999,"REV_AT_EPOCH":3211,"BSTAR":0,"MEAN_MOTION_DOT":-2.7e-7,"MEAN_MOTION_DDOT":0},{"OBJECT_NAME":"INMARSAT 3-F1","OBJECT_ID":"1996-020A","EPOCH":"2026-04-05T04:05:20.763744","MEAN_MOTION":1.00000378,"ECCENTRICITY":0.00046959,"INCLINATION":10.4516,"RA_OF_ASC_NODE":47.2944,"ARG_OF_PERICENTER":304.0486,"MEAN_ANOMALY":242.6303,"EPHEMERIS_TYPE":0,"CLASSIFICATION_TYPE":"U","NORAD_CAT_ID":23839,"ELEMENT_SET_NO":999,"REV_AT_EPOCH":10952,"BSTAR":0,"MEAN_MOTION_DOT":-2.04e-6,"MEAN_MOTION_DDOT":0},{"OBJECT_NAME":"INMARSAT 3-F2","OBJECT_ID":"1996-053A","EPOCH":"2026-04-05T00:39:38.498688","MEAN_MOTION":0.99984904,"ECCENTRICITY":0.00064043,"INCLINATION":9.6933,"RA_OF_ASC_NODE":54.6678,"ARG_OF_PERICENTER":324.3249,"MEAN_ANOMALY":45.7943,"EPHEMERIS_TYPE":0,"CLASSIFICATION_TYPE":"U","NORAD_CAT_ID":24307,"ELEMENT_SET_NO":999,"REV_AT_EPOCH":10819,"BSTAR":0,"MEAN_MOTION_DOT":1.11e-6,"MEAN_MOTION_DDOT":0},{"OBJECT_NAME":"INMARSAT 3-F3","OBJECT_ID":"1996-070A","EPOCH":"2026-04-04T18:29:30.878592","MEAN_MOTION":0.99989066,"ECCENTRICITY":0.0005579,"INCLINATION":10.1617,"RA_OF_ASC_NODE":50.3417,"ARG_OF_PERICENTER":298.8965,"MEAN_ANOMALY":241.3736,"EPHEMERIS_TYPE":0,"CLASSIFICATION_TYPE":"U","NORAD_CAT_ID":24674,"ELEMENT_SET_NO":999,"REV_AT_EPOCH":10717,"BSTAR":0,"MEAN_MOTION_DOT":-3.54e-6,"MEAN_MOTION_DDOT":0},{"OBJECT_NAME":"AMC-3","OBJECT_ID":"1997-050A","EPOCH":"2026-04-05T05:11:42.232992","MEAN_MOTION":1.00271221,"ECCENTRICITY":0.00033468,"INCLINATION":7.9683,"RA_OF_ASC_NODE":64.9056,"ARG_OF_PERICENTER":310.7113,"MEAN_ANOMALY":183.8227,"EPHEMERIS_TYPE":0,"CLASSIFICATION_TYPE":"U","NORAD_CAT_ID":24936,"ELEMENT_SET_NO":999,"REV_AT_EPOCH":5170,"BSTAR":0,"MEAN_MOTION_DOT":-2.59e-6,"MEAN_MOTION_DDOT":0},{"OBJECT_NAME":"USA 134","OBJECT_ID":"1997-065A","EPOCH":"2026-04-04T08:49:39.698112","MEAN_MOTION":1.00271311,"ECCENTRICITY":0.0006366,"INCLINATION":12.6979,"RA_OF_ASC_NODE":22.2703,"ARG_OF_PERICENTER":322.9409,"MEAN_ANOMALY":227.4416,"EPHEMERIS_TYPE":0,"CLASSIFICATION_TYPE":"U","NORAD_CAT_ID":25019,"ELEMENT_SET_NO":999,"REV_AT_EPOCH":3221,"BSTAR":0,"MEAN_MOTION_DOT":-6.1e-7,"MEAN_MOTION_DDOT":0},{"OBJECT_NAME":"INMARSAT 3-F5","OBJECT_ID":"1998-006B","EPOCH":"2026-04-05T07:46:59.448288","MEAN_MOTION":1.00272572,"ECCENTRICITY":0.00053496,"INCLINATION":9.5321,"RA_OF_ASC_NODE":53.9686,"ARG_OF_PERICENTER":324.622,"MEAN_ANOMALY":237.8069,"EPHEMERIS_TYPE":0,"CLASSIFICATION_TYPE":"U","NORAD_CAT_ID":25153,"ELEMENT_SET_NO":999,"REV_AT_EPOCH":10316,"BSTAR":0,"MEAN_MOTION_DOT":-2.88e-6,"MEAN_MOTION_DDOT":0},{"OBJECT_NAME":"ABS-6","OBJECT_ID":"1999-053A","EPOCH":"2026-04-05T03:13:55.696224","MEAN_MOTION":1.00271979,"ECCENTRICITY":0.00029778,"INCLINATION":0.0482,"RA_OF_ASC_NODE":91.7147,"ARG_OF_PERICENTER":303.7121,"MEAN_ANOMALY":5.4832,"EPHEMERIS_TYPE":0,"CLASSIFICATION_TYPE":"U","NORAD_CAT_ID":25924,"ELEMENT_SET_NO":999,"REV_AT_EPOCH":9710,"BSTAR":0,"MEAN_MOTION_DOT":-1.19e-6,"MEAN_MOTION_DDOT":0}]
